[
    {
        "Altitude(m)": 611965.1696003365,
        "Argument of Periapsis(deg)": 0.0,
        "Eccentricity": 0.0,
        "Inclination(deg)": 60.0,
        "Latitude(deg)": 59.140113804944896,
        "Longitude(deg)": -61.030263493766455,
        "Mean Anomaly(deg)": -278.1818,
        "RAAN(deg)": 325.0,
        "Satellite Name": "Test1 1435",
        "Satellite Number": 1435,
        "Semi-Major Axis(m)": 6980739.136638005,
        "Time(s)": 0
    },
    {
        "Altitude(m)": 611995.7954683739,
        "Argument of Periapsis(deg)": 0.00010418945913296404,
        "Eccentricity": 0.0,
        "Inclination(deg)": 60.0,
        "Latitude(deg)": 59.283214766344614,
        "Longitude(deg)": -59.89690334720802,
        "Mean Anomaly(deg)": -277.5616938545382,
        "RAAN(deg)": 324.99957995086027,
        "Satellite Name": "Test1 1435",
        "Satellite Number": 1435,
        "Semi-Major Axis(m)": 6980739.136638005,
        "Time(s)": 10
    }
]